OBJECT_NAME,OBJECT_ID,EPOCH,MEAN_MOTION,ECCENTRICITY,INCLINATION,RA_OF_ASC_NODE,ARG_OF_PERICENTER,MEAN_ANOMALY,EPHEMERIS_TYPE,CLASSIFICATION_TYPE,NORAD_CAT_ID,ELEMENT_SET_NO,REV_AT_EPOCH,BSTAR,MEAN_MOTION_DOT,MEAN_MOTION_DDOT
STARLINK-2386,2021-018U,2025-10-03T13:42:22.124160,15.06407807,.00013887,53.0530,217.1958,84.2812,275.8335,0,U,47805,999,25319,.12400897E-2,.18242E-3,0
STARLINK-2387,2021-018V,2025-10-03T13:48:18.070560,15.06388131,.00014988,53.0535,231.9441,101.7795,258.3362,0,U,47806,999,25304,.21949398E-4,.45E-6,0
STARLINK-2388,2021-018W,2025-10-03T10:21:58.151520,15.06393059,.00015016,53.0529,207.5785,94.0975,266.0186,0,U,47807,999,25330,.15737769E-2,.23233E-3,0
STARLINK-2389,2021-018X,2025-10-03T14:14:50.427744,15.06397989,.00014615,53.0529,231.8485,100.4878,259.6276,0,U,47808,999,25304,.95035835E-3,.13902E-3,0
STARLINK-2391,2021-018Z,2025-10-03T14:57:58.369536,15.06398172,.00016441,53.0524,246.7189,84.9564,275.1612,0,U,47810,999,25283,.15532764E-3,.2033E-4,0
STARLINK-2393,2021-018AB,2025-10-03T10:26:53.407104,15.07237773,.00019625,53.0530,247.5585,111.4563,248.6636,0,U,47812,999,25274,.30717531E-1,.496666E-2,0
STARLINK-2395,2021-018AD,2025-10-03T04:17:03.522336,15.06394855,.00018268,53.0527,238.7140,103.3299,256.7893,0,U,47814,999,25291,.14908294E-3,.1939E-4,0
STARLINK-2396,2021-018AE,2025-10-03T14:36:04.489056,15.06402248,.00013028,53.0514,231.7854,92.6342,267.4796,0,U,47815,999,25298,.83369843E-3,.12159E-3,0
STARLINK-2399,2021-018AF,2025-10-03T06:50:58.379424,15.06388848,.00013627,53.0529,238.2285,111.3028,248.8107,0,U,47816,999,25286,.7149692E-4,.783E-5,0
STARLINK-2400,2021-018AG,2025-10-03T08:53:03.015456,15.06391679,.00011515,53.0530,237.8545,104.4262,255.6855,0,U,47817,999,25287,.46980854E-4,.418E-5,0
STARLINK-2401,2021-018AH,2025-10-03T04:13:49.275264,15.06387852,.00013554,53.0521,244.1892,96.8650,263.2493,0,U,47818,999,25277,.55283494E-4,.542E-5,0
STARLINK-2402,2021-018AJ,2025-10-03T04:10:22.529568,15.06401610,.00015306,53.0533,238.7247,86.7016,273.4148,0,U,47819,999,25291,.34820961E-3,.4909E-4,0
STARLINK-2406,2021-018AL,2025-10-03T14:22:09.271488,15.06396632,.00014026,53.0552,236.8418,102.8563,257.2582,0,U,47821,999,25291,.17760148E-3,.2365E-4,0
STARLINK-2407,2021-018AM,2025-10-03T08:13:13.210464,15.06392155,.0001686,53.0530,247.9663,93.7749,266.3433,0,U,47822,999,25274,.9321534E-5,-.143E-5,0
STARLINK-2408,2021-018AN,2025-10-03T14:57:56.033280,15.06394058,.00018323,53.0554,236.7087,88.5586,271.5613,0,U,47823,999,25292,.22064017E-3,.3006E-4,0
STARLINK-2409,2021-018AP,2025-10-03T14:43:22.848096,15.06400590,.00014199,53.0518,236.7600,88.9577,271.1574,0,U,47824,999,25291,.74012576E-3,.1076E-3,0
STARLINK-2410,2021-018AQ,2025-10-03T15:09:54.730080,15.06401219,.00014841,53.0523,236.6797,77.2884,282.8271,0,U,47825,999,25292,.41684984E-3,.5933E-4,0
STARLINK-2411,2021-018AR,2025-10-03T15:04:36.434208,15.06391373,.00014844,53.0528,236.6968,99.3742,260.7414,0,U,47826,999,25292,.55306095E-3,.7964E-4,0
STARLINK-2413,2021-018AS,2025-10-03T06:41:44.208960,15.06387248,.00014645,53.0518,228.5047,92.3928,267.7229,0,U,47827,999,25306,.34271641E-3,.4825E-4,0
STARLINK-2415,2021-018AT,2025-10-03T14:42:02.647296,15.06390744,.00015584,53.0530,246.7668,98.6273,261.4892,0,U,47828,999,25278,.94391452E-4,.1124E-4,0
STARLINK-2419,2021-018AV,2025-10-03T15:03:16.732800,15.06388175,.00013696,53.0526,246.6989,100.6163,259.4980,0,U,47830,999,25277,.85251772E-4,.988E-5,0
STARLINK-2420,2021-018AW,2025-10-03T13:28:23.467008,15.06386502,.00011554,53.0520,221.9947,112.3103,247.8009,0,U,47831,999,25317,-.92454694E-4,-.1658E-4,0
STARLINK-2422,2021-018AX,2025-10-03T14:00:55.362240,15.06402539,.00014384,53.0540,236.8940,90.4730,269.6424,0,U,47832,999,25291,.82820178E-3,.12077E-3,0
STARLINK-2423,2021-018AY,2025-10-03T14:38:03.391872,15.06394289,.00014139,53.0519,236.7784,101.6976,258.4172,0,U,47833,999,25297,.13079696E-3,.1667E-4,0
STARLINK-2424,2021-018AZ,2025-10-03T02:09:40.623264,15.06396341,.00021785,53.0532,239.1132,72.7148,287.4079,0,U,47834,999,25289,.46328712E-3,.6625E-4,0
STARLINK-2426,2021-018BB,2025-10-03T07:22:50.377728,15.06389773,.00014299,53.0525,238.2215,93.5407,266.5746,0,U,47836,999,25287,-.67272112E-4,-.1283E-4,0
STARLINK-2427,2021-018BC,2025-10-03T01:13:55.620480,15.06397849,.00018522,53.0524,219.2864,102.4408,257.6788,0,U,47837,999,25312,.10896984E-2,.15986E-3,0
STARLINK-2429,2021-018BD,2025-10-03T14:16:49.247616,15.06411631,.00016341,53.0530,236.8433,92.0721,268.0455,0,U,47838,999,25291,.13255836E-3,.1694E-4,0
STARLINK-2431,2021-018BE,2025-10-03T05:24:42.483744,15.06392347,.00014708,53.0548,208.5027,114.3344,245.7798,0,U,47839,999,25329,.28249492E-4,.139E-5,0
STARLINK-2432,2021-018BF,2025-10-03T13:37:00.042240,15.06422941,.00016707,53.0520,216.9705,82.7905,277.3274,0,U,47840,999,25319,.68454798E-3,.9936E-4,0
