STARLINK-2386           
1 47805U 21018U   25276.57108940  .00018242  00000+0  12401-2 0  9998
2 47805  53.0530 217.1958 0001388  84.2812 275.8335 15.06407807253191
STARLINK-2387           
1 47806U 21018V   25276.57520915  .00000045  00000+0  21949-4 0  9990
2 47806  53.0535 231.9441 0001498 101.7795 258.3362 15.06388131253043
STARLINK-2388           
1 47807U 21018W   25276.43192305  .00023233  00000+0  15738-2 0  9995
2 47807  53.0529 207.5785 0001501  94.0975 266.0186 15.06393059253300
STARLINK-2389           
1 47808U 21018X   25276.59363921  .00013902  00000+0  95036-3 0  9999
2 47808  53.0529 231.8485 0001461 100.4878 259.6276 15.06397989253042
STARLINK-2391           
1 47810U 21018Z   25276.62359224  .00002033  00000+0  15533-3 0  9994
2 47810  53.0524 246.7189 0001644  84.9564 275.1612 15.06398172252835
STARLINK-2393           
1 47812U 21018AB  25276.43534036  .00496666  00000+0  30718-1 0  9990
2 47812  53.0530 247.5585 0001962 111.4563 248.6636 15.07237773252742
STARLINK-2395           
1 47814U 21018AD  25276.17851299  .00001939  00000+0  14908-3 0  9996
2 47814  53.0527 238.7140 0001826 103.3299 256.7893 15.06394855252912
STARLINK-2396           
1 47815U 21018AE  25276.60838529  .00012159  00000+0  83370-3 0  9991
2 47815  53.0514 231.7854 0001302  92.6342 267.4796 15.06402248252986
STARLINK-2399           
1 47816U 21018AF  25276.28539791  .00000783  00000+0  71497-4 0  9993
2 47816  53.0529 238.2285 0001362 111.3028 248.8107 15.06388848252864
STARLINK-2400           
1 47817U 21018AG  25276.37017379  .00000418  00000+0  46981-4 0  9992
2 47817  53.0530 237.8545 0001151 104.4262 255.6855 15.06391679252873
STARLINK-2401           
1 47818U 21018AH  25276.17626476  .00000542  00000+0  55283-4 0  9998
2 47818  53.0521 244.1892 0001355  96.8650 263.2493 15.06387852252771
STARLINK-2402           
1 47819U 21018AJ  25276.17387187  .00004909  00000+0  34821-3 0  9997
2 47819  53.0533 238.7247 0001530  86.7016 273.4148 15.06401610252912
STARLINK-2406           
1 47821U 21018AL  25276.59871842  .00002365  00000+0  17760-3 0  9999
2 47821  53.0552 236.8418 0001402 102.8563 257.2582 15.06396632252919
STARLINK-2407           
1 47822U 21018AM  25276.34251401 -.00000143  00000+0  93215-5 0  9990
2 47822  53.0530 247.9663 0001686  93.7749 266.3433 15.06392155252742
STARLINK-2408           
1 47823U 21018AN  25276.62356520  .00003006  00000+0  22064-3 0  9992
2 47823  53.0554 236.7087 0001832  88.5586 271.5613 15.06394058252921
STARLINK-2409           
1 47824U 21018AP  25276.61345889  .00010760  00000+0  74013-3 0  9994
2 47824  53.0518 236.7600 0001419  88.9577 271.1574 15.06400590252918
STARLINK-2410           
1 47825U 21018AQ  25276.63188345  .00005933  00000+0  41685-3 0  9994
2 47825  53.0523 236.6797 0001484  77.2884 282.8271 15.06401219252928
STARLINK-2411           
1 47826U 21018AR  25276.62819947  .00007964  00000+0  55306-3 0  9994
2 47826  53.0528 236.6968 0001484  99.3742 260.7414 15.06391373252925
STARLINK-2413           
1 47827U 21018AS  25276.27898390  .00004825  00000+0  34272-3 0  9997
2 47827  53.0518 228.5047 0001464  92.3928 267.7229 15.06387248253063
STARLINK-2415           
1 47828U 21018AT  25276.61253064  .00001124  00000+0  94391-4 0  9997
2 47828  53.0530 246.7668 0001558  98.6273 261.4892 15.06390744252785
STARLINK-2419           
1 47830U 21018AV  25276.62727700  .00000988  00000+0  85252-4 0  9997
2 47830  53.0526 246.6989 0001369 100.6163 259.4980 15.06388175252779
STARLINK-2420           
1 47831U 21018AW  25276.56138272 -.00001658  00000+0 -92455-4 0  9991
2 47831  53.0520 221.9947 0001155 112.3103 247.8009 15.06386502253171
STARLINK-2422           
1 47832U 21018AX  25276.58397410  .00012077  00000+0  82820-3 0  9994
2 47832  53.0540 236.8940 0001438  90.4730 269.6424 15.06402539252911
STARLINK-2423           
1 47833U 21018AY  25276.60976148  .00001667  00000+0  13080-3 0  9994
2 47833  53.0519 236.7784 0001413 101.6976 258.4172 15.06394289252977
STARLINK-2424           
1 47834U 21018AZ  25276.09005351  .00006625  00000+0  46329-3 0  9998
2 47834  53.0532 239.1132 0002178  72.7148 287.4079 15.06396341252895
STARLINK-2426           
1 47836U 21018BB  25276.30752752 -.00001283  00000+0 -67272-4 0  9996
2 47836  53.0525 238.2215 0001429  93.5407 266.5746 15.06389773252876
STARLINK-2427           
1 47837U 21018BC  25276.05133820  .00015986  00000+0  10897-2 0  9990
2 47837  53.0524 219.2864 0001852 102.4408 257.6788 15.06397849253125
STARLINK-2429           
1 47838U 21018BD  25276.59501444  .00001694  00000+0  13256-3 0  9995
2 47838  53.0530 236.8433 0001634  92.0721 268.0455 15.06411631252919
STARLINK-2431           
1 47839U 21018BE  25276.22549171  .00000139  00000+0  28249-4 0  9997
2 47839  53.0548 208.5027 0001470 114.3344 245.7798 15.06392347253297
STARLINK-2432           
1 47840U 21018BF  25276.56736160  .00009936  00000+0  68455-3 0  9998
2 47840  53.0520 216.9705 0001670  82.7905 277.3274 15.06422941253191
